[{"state": "Alabama", "state_towns": [{"median_salary": "$197,791", "place_name": "Auburn"}, {"median_salary": "$195,776", "place_name": "Birmingham"}, {"median_salary": "$203,921", "place_name": "Decatur"}, {"median_salary": "$173,524", "place_name": "Dothan"}, {"median_salary": "$174,699", "place_name": "Florence"}, {"median_salary": "$195,776", "place_name": "Gadsden"}, {"median_salary": "$190,276", "place_name": "Georgiana"}, {"median_salary": "$203,921", "place_name": "Huntsville"}, {"median_salary": "$203,921", "place_name": "Madison"}, {"median_salary": "$191,913", "place_name": "Mobile"}, {"median_salary": "$190,276", "place_name": "Montgomery"}, {"median_salary": "$190,276", "place_name": "Prattville"}, {"median_salary": "$203,921", "place_name": "Tanner"}, {"median_salary": "$175,665", "place_name": "Tuscaloosa"}]}, {"state": "Arizona", "state_towns": [{"median_salary": "$205,306", "place_name": "Avondale"}, {"median_salary": "$203,942", "place_name": "Chandler"}, {"median_salary": "$178,751", "place_name": "Flagstaff"}, {"median_salary": "$203,942", "place_name": "Gilbert"}, {"median_salary": "$205,306", "place_name": "Glendale"}, {"median_salary": "$205,306", "place_name": "Goodyear"}, {"median_salary": "$209,295", "place_name": "Lake Havasu City"}, {"median_salary": "$203,942", "place_name": "Mesa"}, {"median_salary": "$205,306", "place_name": "Peoria"}, {"median_salary": "$205,306", "place_name": "Phoenix"}, {"median_salary": "$178,751", "place_name": "Prescott"}, {"median_salary": "$203,942", "place_name": "Scottsdale"}, {"median_salary": "$178,751", "place_name": "Sierra Vista"}, {"median_salary": "$205,306", "place_name": "Sun City"}, {"median_salary": "$205,306", "place_name": "Surprise"}, {"median_salary": "$203,942", "place_name": "Tempe"}, {"median_salary": "$178,751", "place_name": "Tucson"}, {"median_salary": "$205,306", "place_name": "Yuma"}]}, {"state": "Arkansas", "state_towns": [{"median_salary": "$173,020", "place_name": "Bentonville"}, {"median_salary": "$187,883", "place_name": "Conway"}, {"median_salary": "$173,020", "place_name": "Fayetteville"}, {"median_salary": "$178,709", "place_name": "Fort Smith"}, {"median_salary": "$187,883", "place_name": "Jacksonville"}, {"median_salary": "$199,323", "place_name": "Jonesboro"}, {"median_salary": "$187,883", "place_name": "Little Rock"}, {"median_salary": "$187,883", "place_name": "Pine Bluff"}, {"median_salary": "$173,020", "place_name": "Rogers"}, {"median_salary": "$173,020", "place_name": "Springdale"}, {"median_salary": "$193,131", "place_name": "Texarkana"}]}, {"state": "Colorado", "state_towns": [{"median_salary": "$207,616", "place_name": "Colorado Springs"}, {"median_salary": "$199,219", "place_name": "Fort Collins"}, {"median_salary": "$199,219", "place_name": "Greeley"}, {"median_salary": "$199,219", "place_name": "Loveland"}, {"median_salary": "$191,871", "place_name": "Pueblo"}]}, {"state": "District Of Columbia", "state_towns": []}, {"state": "Federated States Of Micronesia", "state_towns": []}, {"state": "Florida", "state_towns": [{"median_salary": "$202,934", "place_name": "Boca Raton"}, {"median_salary": "$191,220", "place_name": "Bradenton"}, {"median_salary": "$200,121", "place_name": "Brandon"}, {"median_salary": "$188,197", "place_name": "Cape Coral"}, {"median_salary": "$200,121", "place_name": "Clearwater"}, {"median_salary": "$191,976", "place_name": "Daytona Beach"}, {"median_salary": "$202,934", "place_name": "Fort Lauderdale"}, {"median_salary": "$188,197", "place_name": "Fort Myers"}, {"median_salary": "$190,948", "place_name": "Gainesville"}, {"median_salary": "$200,331", "place_name": "Hialeah"}, {"median_salary": "$202,934", "place_name": "Hollywood"}, {"median_salary": "$196,175", "place_name": "Jacksonville"}, {"median_salary": "$189,331", "place_name": "Melbourne"}, {"median_salary": "$200,331", "place_name": "Miami"}, {"median_salary": "$200,226", "place_name": "Orlando"}, {"median_salary": "$189,331", "place_name": "Palm Bay"}, {"median_salary": "$202,934", "place_name": "Pembroke Pines"}, {"median_salary": "$187,190", "place_name": "Pensacola"}, {"median_salary": "$202,934", "place_name": "Pompano Beach"}, {"median_salary": "$189,331", "place_name": "Port Saint Lucie"}, {"median_salary": "$200,121", "place_name": "Saint Petersburg"}, {"median_salary": "$191,220", "place_name": "Sarasota"}, {"median_salary": "$200,121", "place_name": "Spring Hill"}, {"median_salary": "$190,402", "place_name": "Tallahassee"}, {"median_salary": "$200,121", "place_name": "Tampa"}, {"median_salary": "$202,934", "place_name": "West Palm Beach"}]}, {"state": "Georgia", "state_towns": [{"median_salary": "$175,434", "place_name": "Albany"}, {"median_salary": "$193,341", "place_name": "Augusta"}, {"median_salary": "$197,791", "place_name": "Columbus"}, {"median_salary": "$196,972", "place_name": "Macon"}, {"median_salary": "$187,295", "place_name": "Savannah"}, {"median_salary": "$190,402", "place_name": "Valdosta"}]}, {"state": "Guam", "state_towns": []}, {"state": "Idaho", "state_towns": [{"median_salary": "$202,724", "place_name": "Boise"}, {"median_salary": "$202,724", "place_name": "Caldwell"}, {"median_salary": "$207,406", "place_name": "Coeur D Alene"}, {"median_salary": "$196,280", "place_name": "Idaho Falls"}, {"median_salary": "$202,724", "place_name": "Meridian"}, {"median_salary": "$202,724", "place_name": "Nampa"}, {"median_salary": "$178,037", "place_name": "Pocatello"}, {"median_salary": "$177,596", "place_name": "Twin Falls"}]}, {"state": "Illinois", "state_towns": [{"median_salary": "$191,661", "place_name": "Bloomington"}, {"median_salary": "$183,684", "place_name": "Champaign"}, {"median_salary": "$189,016", "place_name": "Decatur"}, {"median_salary": "$190,087", "place_name": "Moline"}, {"median_salary": "$191,661", "place_name": "Normal"}, {"median_salary": "$191,661", "place_name": "Peoria"}, {"median_salary": "$190,087", "place_name": "Rock Island"}, {"median_salary": "$189,016", "place_name": "Springfield"}, {"median_salary": "$198,715", "place_name": "Waukegan"}]}, {"state": "Indiana", "state_towns": [{"median_salary": "$193,278", "place_name": "Anderson"}, {"median_salary": "$197,938", "place_name": "Bloomington"}, {"median_salary": "$201,906", "place_name": "Carmel"}, {"median_salary": "$200,331", "place_name": "Elkhart"}, {"median_salary": "$199,617", "place_name": "Evansville"}, {"median_salary": "$201,906", "place_name": "Fishers"}, {"median_salary": "$195,902", "place_name": "Fort Wayne"}, {"median_salary": "$203,627", "place_name": "Gary"}, {"median_salary": "$201,906", "place_name": "Greenwood"}, {"median_salary": "$203,627", "place_name": "Hammond"}, {"median_salary": "$201,906", "place_name": "Indianapolis"}, {"median_salary": "$201,906", "place_name": "Lafayette"}, {"median_salary": "$192,900", "place_name": "Mishawaka"}, {"median_salary": "$193,278", "place_name": "Muncie"}, {"median_salary": "$192,900", "place_name": "South Bend"}, {"median_salary": "$193,089", "place_name": "Terre Haute"}, {"median_salary": "$190,129", "place_name": "Vincennes"}]}, {"state": "Iowa", "state_towns": [{"median_salary": "$201,255", "place_name": "Ames"}, {"median_salary": "$201,255", "place_name": "Ankeny"}, {"median_salary": "$175,287", "place_name": "Cedar Falls"}, {"median_salary": "$189,478", "place_name": "Cedar Rapids"}, {"median_salary": "$198,526", "place_name": "Council Bluffs"}, {"median_salary": "$190,087", "place_name": "Davenport"}, {"median_salary": "$201,255", "place_name": "Des Moines"}, {"median_salary": "$189,478", "place_name": "Dubuque"}, {"median_salary": "$189,478", "place_name": "Iowa City"}, {"median_salary": "$163,636", "place_name": "Sioux City"}, {"median_salary": "$201,255", "place_name": "Urbandale"}, {"median_salary": "$175,287", "place_name": "Waterloo"}, {"median_salary": "$201,255", "place_name": "West Des Moines"}]}, {"state": "Kansas", "state_towns": [{"median_salary": "$202,724", "place_name": "Hutchinson"}, {"median_salary": "$206,608", "place_name": "Kansas City"}, {"median_salary": "$196,259", "place_name": "Lawrence"}, {"median_salary": "$206,608", "place_name": "Lenexa"}, {"median_salary": "$196,259", "place_name": "Manhattan"}, {"median_salary": "$206,608", "place_name": "Olathe"}, {"median_salary": "$206,608", "place_name": "Overland Park"}, {"median_salary": "$202,724", "place_name": "Salina"}, {"median_salary": "$206,608", "place_name": "Shawnee"}, {"median_salary": "$196,259", "place_name": "Topeka"}, {"median_salary": "$202,724", "place_name": "Wichita"}]}, {"state": "Kentucky", "state_towns": [{"median_salary": "$200,814", "place_name": "Bowling Green"}, {"median_salary": "$204,949", "place_name": "Covington"}, {"median_salary": "$200,625", "place_name": "Frankfort"}, {"median_salary": "$188,701", "place_name": "Hopkinsville"}, {"median_salary": "$197,686", "place_name": "Lexington"}, {"median_salary": "$200,814", "place_name": "Louisville"}, {"median_salary": "$199,617", "place_name": "Owensboro"}, {"median_salary": "$197,686", "place_name": "Richmond"}]}, {"state": "Louisiana", "state_towns": [{"median_salary": "$171,383", "place_name": "Alexandria"}, {"median_salary": "$182,425", "place_name": "Baton Rouge"}, {"median_salary": "$193,131", "place_name": "Bossier City"}, {"median_salary": "$175,413", "place_name": "Lafayette"}, {"median_salary": "$190,927", "place_name": "Lake Charles"}, {"median_salary": "$185,426", "place_name": "Monroe"}, {"median_salary": "$175,413", "place_name": "New Iberia"}, {"median_salary": "$193,131", "place_name": "Shreveport"}]}, {"state": "Maine", "state_towns": [{"median_salary": "$191,136", "place_name": "Bangor"}]}, {"state": "Marshall Islands", "state_towns": []}, {"state": "Michigan", "state_towns": [{"median_salary": "$199,743", "place_name": "Battle Creek"}, {"median_salary": "$197,245", "place_name": "Benton Harbor"}, {"median_salary": "$209,337", "place_name": "Dearborn"}, {"median_salary": "$209,337", "place_name": "Dearborn Heights"}, {"median_salary": "$209,337", "place_name": "Detroit"}, {"median_salary": "$209,337", "place_name": "Farmington"}, {"median_salary": "$194,285", "place_name": "Flint"}, {"median_salary": "$207,972", "place_name": "Grand Rapids"}, {"median_salary": "$199,743", "place_name": "Kalamazoo"}, {"median_salary": "$198,589", "place_name": "Lansing"}, {"median_salary": "$209,337", "place_name": "Livonia"}, {"median_salary": "$193,865", "place_name": "Muskegon"}, {"median_salary": "$209,337", "place_name": "Pontiac"}, {"median_salary": "$209,337", "place_name": "Royal Oak"}, {"median_salary": "$194,285", "place_name": "Saginaw"}, {"median_salary": "$209,337", "place_name": "Southfield"}, {"median_salary": "$209,337", "place_name": "Sterling Heights"}, {"median_salary": "$209,337", "place_name": "Taylor"}, {"median_salary": "$209,337", "place_name": "Troy"}, {"median_salary": "$209,337", "place_name": "Warren"}, {"median_salary": "$209,337", "place_name": "Waterford"}, {"median_salary": "$209,337", "place_name": "West Bloomfield"}, {"median_salary": "$209,337", "place_name": "Westland"}, {"median_salary": "$207,972", "place_name": "Wyoming"}]}, {"state": "Minnesota", "state_towns": [{"median_salary": "$198,694", "place_name": "Duluth"}, {"median_salary": "$193,970", "place_name": "Rochester"}, {"median_salary": "$205,054", "place_name": "Saint Cloud"}]}, {"state": "Mississippi", "state_towns": [{"median_salary": "$192,186", "place_name": "Biloxi"}, {"median_salary": "$178,982", "place_name": "Columbus"}, {"median_salary": "$186,728", "place_name": "Greenville"}, {"median_salary": "$178,352", "place_name": "Gulfport"}, {"median_salary": "$178,352", "place_name": "Hattiesburg"}, {"median_salary": "$175,119", "place_name": "Jackson"}, {"median_salary": "$178,982", "place_name": "Meridian"}, {"median_salary": "$199,323", "place_name": "Olive Branch"}, {"median_salary": "$183,348", "place_name": "Pascagoula"}, {"median_salary": "$199,323", "place_name": "Southaven"}, {"median_salary": "$178,982", "place_name": "Tupelo"}]}, {"state": "Missouri", "state_towns": [{"median_salary": "$206,608", "place_name": "Blue Springs"}, {"median_salary": "$205,810", "place_name": "Chesterfield"}, {"median_salary": "$205,810", "place_name": "Columbia"}, {"median_salary": "$205,810", "place_name": "Florissant"}, {"median_salary": "$206,608", "place_name": "Independence"}, {"median_salary": "$205,810", "place_name": "Jefferson City"}, {"median_salary": "$189,814", "place_name": "Joplin"}, {"median_salary": "$206,608", "place_name": "Kansas City"}, {"median_salary": "$206,608", "place_name": "Lees Summit"}, {"median_salary": "$205,810", "place_name": "O Fallon"}, {"median_salary": "$205,810", "place_name": "Saint Charles"}, {"median_salary": "$206,608", "place_name": "Saint Joseph"}, {"median_salary": "$205,810", "place_name": "Saint Louis"}, {"median_salary": "$205,810", "place_name": "Saint Peters"}, {"median_salary": "$189,814", "place_name": "Springfield"}]}, {"state": "Montana", "state_towns": [{"median_salary": "$184,314", "place_name": "Billings"}, {"median_salary": "$168,087", "place_name": "Bozeman"}, {"median_salary": "$168,087", "place_name": "Butte"}, {"median_salary": "$182,005", "place_name": "Great Falls"}, {"median_salary": "$168,087", "place_name": "Helena"}, {"median_salary": "$182,005", "place_name": "Kalispell"}, {"median_salary": "$168,087", "place_name": "Missoula"}]}, {"state": "Nebraska", "state_towns": [{"median_salary": "$198,526", "place_name": "Bellevue"}, {"median_salary": "$198,526", "place_name": "Fremont"}, {"median_salary": "$182,215", "place_name": "Grand Island"}, {"median_salary": "$182,215", "place_name": "Hastings"}, {"median_salary": "$182,215", "place_name": "Kearney"}, {"median_salary": "$182,215", "place_name": "Lincoln"}, {"median_salary": "$163,636", "place_name": "Norfolk"}, {"median_salary": "$189,646", "place_name": "North Platte"}, {"median_salary": "$198,526", "place_name": "Omaha"}]}, {"state": "Nevada", "state_towns": [{"median_salary": "$209,295", "place_name": "Henderson"}, {"median_salary": "$209,295", "place_name": "Las Vegas"}, {"median_salary": "$209,295", "place_name": "North Las Vegas"}, {"median_salary": "$208,308", "place_name": "Reno"}, {"median_salary": "$208,308", "place_name": "Sparks"}, {"median_salary": "$208,308", "place_name": "Sun Valley"}]}, {"state": "New Mexico", "state_towns": [{"median_salary": "$159,858", "place_name": "Alamogordo"}, {"median_salary": "$193,383", "place_name": "Albuquerque"}, {"median_salary": "$164,917", "place_name": "Clovis"}, {"median_salary": "$187,253", "place_name": "Farmington"}, {"median_salary": "$164,917", "place_name": "Hobbs"}, {"median_salary": "$167,520", "place_name": "Las Cruces"}, {"median_salary": "$193,383", "place_name": "Rio Rancho"}, {"median_salary": "$159,858", "place_name": "Roswell"}, {"median_salary": "$187,253", "place_name": "Santa Fe"}, {"median_salary": "$176,652", "place_name": "Sunland Park"}]}, {"state": "New York", "state_towns": [{"median_salary": "$201,843", "place_name": "Albany"}, {"median_salary": "$193,152", "place_name": "Binghamton"}, {"median_salary": "$201,066", "place_name": "Buffalo"}, {"median_salary": "$197,917", "place_name": "Clay"}, {"median_salary": "$206,776", "place_name": "Henrietta"}, {"median_salary": "$196,930", "place_name": "Jamestown"}, {"median_salary": "$201,843", "place_name": "Nassau"}, {"median_salary": "$201,066", "place_name": "Niagara Falls"}, {"median_salary": "$206,776", "place_name": "Rochester"}, {"median_salary": "$201,843", "place_name": "Schenectady"}, {"median_salary": "$197,917", "place_name": "Syracuse"}, {"median_salary": "$201,843", "place_name": "Troy"}, {"median_salary": "$200,562", "place_name": "Utica"}]}, {"state": "North Carolina", "state_towns": [{"median_salary": "$189,688", "place_name": "Asheville"}, {"median_salary": "$203,606", "place_name": "Burlington"}, {"median_salary": "$209,085", "place_name": "Cary"}, {"median_salary": "$209,085", "place_name": "Chapel Hill"}, {"median_salary": "$209,463", "place_name": "Charlotte"}, {"median_salary": "$209,463", "place_name": "Concord"}, {"median_salary": "$209,085", "place_name": "Durham"}, {"median_salary": "$191,850", "place_name": "Fayetteville"}, {"median_salary": "$209,463", "place_name": "Gastonia"}, {"median_salary": "$203,606", "place_name": "Greensboro"}, {"median_salary": "$209,085", "place_name": "Greenville"}, {"median_salary": "$209,463", "place_name": "Hickory"}, {"median_salary": "$203,606", "place_name": "High Point"}, {"median_salary": "$179,780", "place_name": "Jacksonville"}, {"median_salary": "$202,115", "place_name": "Kannapolis"}, {"median_salary": "$209,085", "place_name": "Raleigh"}, {"median_salary": "$209,085", "place_name": "Rocky Mount"}, {"median_salary": "$202,115", "place_name": "Salisbury"}, {"median_salary": "$179,780", "place_name": "Wilmington"}, {"median_salary": "$209,085", "place_name": "Wilson"}, {"median_salary": "$203,606", "place_name": "Winston Salem"}, {"median_salary": "$209,085", "place_name": "Greenville"}]}, {"state": "North Dakota", "state_towns": [{"median_salary": "$190,402", "place_name": "Bismarck"}, {"median_salary": "$190,402", "place_name": "Dickinson"}, {"median_salary": "$198,694", "place_name": "Fargo"}, {"median_salary": "$161,348", "place_name": "Grand Forks"}, {"median_salary": "$190,402", "place_name": "Mandan"}, {"median_salary": "$190,402", "place_name": "Minot"}, {"median_salary": "$198,694", "place_name": "West Fargo"}]}, {"state": "Northern Mariana Islands", "state_towns": []}, {"state": "Ohio", "state_towns": [{"median_salary": "$199,911", "place_name": "Akron"}, {"median_salary": "$201,801", "place_name": "Canton"}, {"median_salary": "$190,968", "place_name": "Chillicothe"}, {"median_salary": "$204,949", "place_name": "Cincinnati"}, {"median_salary": "$209,232", "place_name": "Cleveland"}, {"median_salary": "$206,146", "place_name": "Columbus"}, {"median_salary": "$199,911", "place_name": "Cuyahoga Falls"}, {"median_salary": "$204,572", "place_name": "Dayton"}, {"median_salary": "$199,240", "place_name": "Elyria"}, {"median_salary": "$209,232", "place_name": "Euclid"}, {"median_salary": "$204,949", "place_name": "Hamilton"}, {"median_salary": "$209,232", "place_name": "Lakewood"}, {"median_salary": "$201,297", "place_name": "Lima"}, {"median_salary": "$199,240", "place_name": "Lorain"}, {"median_salary": "$199,240", "place_name": "Mansfield"}, {"median_salary": "$204,572", "place_name": "Middletown"}, {"median_salary": "$206,146", "place_name": "Newark"}, {"median_salary": "$189,499", "place_name": "Portsmouth"}, {"median_salary": "$204,572", "place_name": "Springfield"}, {"median_salary": "$201,528", "place_name": "Toledo"}, {"median_salary": "$198,799", "place_name": "Youngstown"}]}, {"state": "Oklahoma", "state_towns": [{"median_salary": "$176,274", "place_name": "Altus"}, {"median_salary": "$199,701", "place_name": "Bartlesville"}, {"median_salary": "$199,701", "place_name": "Broken Arrow"}, {"median_salary": "$197,266", "place_name": "Edmond"}, {"median_salary": "$197,266", "place_name": "Enid"}, {"median_salary": "$176,274", "place_name": "Lawton"}, {"median_salary": "$199,701", "place_name": "Muskogee"}, {"median_salary": "$197,266", "place_name": "Norman"}, {"median_salary": "$197,266", "place_name": "Oklahoma City"}, {"median_salary": "$197,266", "place_name": "Stillwater"}, {"median_salary": "$199,701", "place_name": "Tulsa"}]}, {"state": "Oregon", "state_towns": [{"median_salary": "$207,595", "place_name": "Albany"}, {"median_salary": "$195,860", "place_name": "Bend"}, {"median_salary": "$207,595", "place_name": "Corvallis"}, {"median_salary": "$190,297", "place_name": "Medford"}, {"median_salary": "$207,595", "place_name": "Salem"}, {"median_salary": "$195,860", "place_name": "Springfield"}]}, {"state": "Palau", "state_towns": []}, {"state": "Pennsylvania", "state_towns": [{"median_salary": "$204,551", "place_name": "Allentown"}, {"median_salary": "$201,024", "place_name": "Altoona"}, {"median_salary": "$204,551", "place_name": "Bethlehem"}, {"median_salary": "$204,551", "place_name": "Easton"}, {"median_salary": "$197,791", "place_name": "Erie"}, {"median_salary": "$201,906", "place_name": "Greensburg"}, {"median_salary": "$208,854", "place_name": "Harrisburg"}, {"median_salary": "$198,379", "place_name": "Johnstown"}, {"median_salary": "$201,906", "place_name": "Pittsburgh"}, {"median_salary": "$194,180", "place_name": "Scranton"}, {"median_salary": "$201,024", "place_name": "State College"}, {"median_salary": "$204,551", "place_name": "Stroudsburg"}, {"median_salary": "$194,180", "place_name": "Wilkes Barre"}, {"median_salary": "$208,854", "place_name": "Williamsport"}]}, {"state": "Puerto Rico", "state_towns": []}, {"state": "South Carolina", "state_towns": [{"median_salary": "$193,341", "place_name": "Aiken"}, {"median_salary": "$203,144", "place_name": "Anderson"}, {"median_salary": "$199,219", "place_name": "Charleston"}, {"median_salary": "$196,636", "place_name": "Columbia"}, {"median_salary": "$191,451", "place_name": "Florence"}, {"median_salary": "$199,219", "place_name": "Goose Creek"}, {"median_salary": "$203,144", "place_name": "Greenville"}, {"median_salary": "$187,295", "place_name": "Hilton Head Island"}, {"median_salary": "$199,219", "place_name": "Mount Pleasant"}, {"median_salary": "$191,451", "place_name": "Myrtle Beach"}, {"median_salary": "$209,463", "place_name": "Rock Hill"}, {"median_salary": "$191,934", "place_name": "Spartanburg"}, {"median_salary": "$199,219", "place_name": "Summerville"}, {"median_salary": "$193,446", "place_name": "Sumter"}]}, {"state": "South Dakota", "state_towns": [{"median_salary": "$163,321", "place_name": "Aberdeen"}, {"median_salary": "$163,636", "place_name": "Brookings"}, {"median_salary": "$191,388", "place_name": "Deadwood"}, {"median_salary": "$163,321", "place_name": "Pierre"}, {"median_salary": "$191,388", "place_name": "Rapid City"}, {"median_salary": "$163,636", "place_name": "Sioux Falls"}, {"median_salary": "$163,636", "place_name": "Watertown"}]}, {"state": "Tennessee", "state_towns": [{"median_salary": "$190,339", "place_name": "Chattanooga"}, {"median_salary": "$188,701", "place_name": "Clarksville"}, {"median_salary": "$198,337", "place_name": "Franklin"}, {"median_salary": "$199,323", "place_name": "Germantown"}, {"median_salary": "$198,337", "place_name": "Hendersonville"}, {"median_salary": "$199,323", "place_name": "Jackson"}, {"median_salary": "$179,926", "place_name": "Johnson City"}, {"median_salary": "$179,926", "place_name": "Kingsport"}, {"median_salary": "$186,203", "place_name": "Knoxville"}, {"median_salary": "$199,323", "place_name": "Memphis"}, {"median_salary": "$198,337", "place_name": "Murfreesboro"}, {"median_salary": "$198,337", "place_name": "Nashville"}]}, {"state": "Texas", "state_towns": [{"median_salary": "$186,980", "place_name": "Abilene"}, {"median_salary": "$183,306", "place_name": "Amarillo"}, {"median_salary": "$206,713", "place_name": "Arlington"}, {"median_salary": "$202,220", "place_name": "Austin"}, {"median_salary": "$194,726", "place_name": "Beaumont"}, {"median_salary": "$185,259", "place_name": "Brownsville"}, {"median_salary": "$180,346", "place_name": "Corpus Christi"}, {"median_salary": "$206,713", "place_name": "Denton"}, {"median_salary": "$176,652", "place_name": "El Paso"}, {"median_salary": "$206,713", "place_name": "Fort Worth"}, {"median_salary": "$196,238", "place_name": "Galveston"}, {"median_salary": "$185,259", "place_name": "Harlingen"}, {"median_salary": "$187,337", "place_name": "Killeen"}, {"median_salary": "$178,100", "place_name": "Laredo"}, {"median_salary": "$194,327", "place_name": "Longview"}, {"median_salary": "$164,917", "place_name": "Lubbock"}, {"median_salary": "$178,100", "place_name": "Mcallen"}, {"median_salary": "$164,917", "place_name": "Midland"}, {"median_salary": "$164,917", "place_name": "Odessa"}, {"median_salary": "$194,726", "place_name": "Port Arthur"}, {"median_salary": "$202,220", "place_name": "Round Rock"}, {"median_salary": "$196,972", "place_name": "San Antonio"}, {"median_salary": "$188,680", "place_name": "Temple"}, {"median_salary": "$190,423", "place_name": "Waco"}, {"median_salary": "$191,829", "place_name": "Wichita Falls"}]}, {"state": "Utah", "state_towns": [{"median_salary": "$193,089", "place_name": "Layton"}, {"median_salary": "$190,087", "place_name": "Lehi"}, {"median_salary": "$193,089", "place_name": "Logan"}, {"median_salary": "$193,089", "place_name": "Ogden"}, {"median_salary": "$190,087", "place_name": "Orem"}, {"median_salary": "$190,087", "place_name": "Provo"}, {"median_salary": "$209,295", "place_name": "Saint George"}, {"median_salary": "$199,575", "place_name": "Salt Lake City"}, {"median_salary": "$199,575", "place_name": "Sandy"}, {"median_salary": "$199,575", "place_name": "South Jordan"}, {"median_salary": "$199,575", "place_name": "West Jordan"}]}, {"state": "Vermont", "state_towns": [{"median_salary": "$195,545", "place_name": "Burlington"}, {"median_salary": "$195,545", "place_name": "Colchester"}, {"median_salary": "$195,545", "place_name": "Essex"}, {"median_salary": "$195,545", "place_name": "Rutland"}, {"median_salary": "$195,545", "place_name": "South Burlington"}]}, {"state": "Virgin Islands", "state_towns": []}, {"state": "Virginia", "state_towns": [{"median_salary": "$193,844", "place_name": "Chesapeake"}, {"median_salary": "$193,844", "place_name": "Hampton"}, {"median_salary": "$185,930", "place_name": "Lynchburg"}, {"median_salary": "$193,844", "place_name": "Newport News"}, {"median_salary": "$193,844", "place_name": "Norfolk"}, {"median_salary": "$193,844", "place_name": "Portsmouth"}, {"median_salary": "$191,934", "place_name": "Roanoke"}, {"median_salary": "$193,844", "place_name": "Suffolk"}, {"median_salary": "$193,844", "place_name": "Virginia Beach"}]}, {"state": "Washington", "state_towns": [{"median_salary": "$203,627", "place_name": "Bellingham"}, {"median_salary": "$207,595", "place_name": "Kennewick"}, {"median_salary": "$207,595", "place_name": "Pasco"}, {"median_salary": "$200,205", "place_name": "Richland"}, {"median_salary": "$207,406", "place_name": "Spokane"}, {"median_salary": "$207,595", "place_name": "Yakima"}]}, {"state": "West Virginia", "state_towns": [{"median_salary": "$184,293", "place_name": "Charleston"}, {"median_salary": "$175,707", "place_name": "Huntington"}, {"median_salary": "$181,627", "place_name": "Morgantown"}, {"median_salary": "$181,627", "place_name": "Parkersburg"}, {"median_salary": "$181,627", "place_name": "Wheeling"}]}, {"state": "Wisconsin", "state_towns": [{"median_salary": "$199,470", "place_name": "Appleton"}, {"median_salary": "$178,520", "place_name": "Eau Claire"}, {"median_salary": "$195,650", "place_name": "Green Bay"}, {"median_salary": "$198,715", "place_name": "Kenosha"}, {"median_salary": "$178,520", "place_name": "La Crosse"}, {"median_salary": "$195,314", "place_name": "Madison"}, {"median_salary": "$196,972", "place_name": "Milwaukee"}, {"median_salary": "$199,470", "place_name": "Oshkosh"}, {"median_salary": "$198,715", "place_name": "Racine"}, {"median_salary": "$196,972", "place_name": "Waukesha"}]}, {"state": "Wyoming", "state_towns": [{"median_salary": "$191,388", "place_name": "Casper"}, {"median_salary": "$189,646", "place_name": "Cheyenne"}, {"median_salary": "$191,388", "place_name": "Gillette"}, {"median_salary": "$191,388", "place_name": "Laramie"}, {"median_salary": "$199,575", "place_name": "Rock Springs"}]}, {"state": "Alaska", "state_towns": [{"median_salary": "$237,005", "place_name": "Anchorage"}, {"median_salary": "$235,116", "place_name": "Fairbanks"}, {"median_salary": "$237,425", "place_name": "Juneau"}, {"median_salary": "$237,005", "place_name": "Palmer"}, {"median_salary": "$237,425", "place_name": "Sitka"}, {"median_salary": "$237,005", "place_name": "Wasilla"}]}, {"state": "California", "state_towns": [{"median_salary": "$232,114", "place_name": "Anaheim"}, {"median_salary": "$234,066", "place_name": "Antioch"}, {"median_salary": "$221,450", "place_name": "Apple Valley"}, {"median_salary": "$216,138", "place_name": "Bakersfield"}, {"median_salary": "$238,286", "place_name": "Berkeley"}, {"median_salary": "$230,161", "place_name": "Burbank"}, {"median_salary": "$223,339", "place_name": "Carlsbad"}, {"median_salary": "$232,114", "place_name": "Carson"}, {"median_salary": "$215,929", "place_name": "Chico"}, {"median_salary": "$223,339", "place_name": "Chula Vista"}, {"median_salary": "$221,450", "place_name": "Coachella"}, {"median_salary": "$238,286", "place_name": "Concord"}, {"median_salary": "$221,450", "place_name": "Corona"}, {"median_salary": "$232,114", "place_name": "Costa Mesa"}, {"median_salary": "$256,339", "place_name": "Daly City"}, {"median_salary": "$232,114", "place_name": "Downey"}, {"median_salary": "$223,339", "place_name": "El Cajon"}, {"median_salary": "$230,161", "place_name": "El Monte"}, {"median_salary": "$228,020", "place_name": "Elk Grove"}, {"median_salary": "$223,339", "place_name": "Escondido"}, {"median_salary": "$234,066", "place_name": "Fairfield"}, {"median_salary": "$221,450", "place_name": "Fontana"}, {"median_salary": "$247,774", "place_name": "Fremont"}, {"median_salary": "$213,976", "place_name": "Fresno"}, {"median_salary": "$232,114", "place_name": "Fullerton"}, {"median_salary": "$232,114", "place_name": "Garden Grove"}, {"median_salary": "$230,161", "place_name": "Glendale"}, {"median_salary": "$238,286", "place_name": "Hayward"}, {"median_salary": "$232,114", "place_name": "Huntington Beach"}, {"median_salary": "$230,161", "place_name": "Inglewood"}, {"median_salary": "$232,114", "place_name": "Irvine"}, {"median_salary": "$230,161", "place_name": "Lancaster"}, {"median_salary": "$213,808", "place_name": "Lompoc"}, {"median_salary": "$232,114", "place_name": "Long Beach"}, {"median_salary": "$230,161", "place_name": "Los Angeles"}, {"median_salary": "$222,877", "place_name": "Modesto"}, {"median_salary": "$232,702", "place_name": "Monterey"}, {"median_salary": "$221,450", "place_name": "Moreno Valley"}, {"median_salary": "$221,450", "place_name": "Murrieta"}, {"median_salary": "$230,161", "place_name": "Newhall"}, {"median_salary": "$232,114", "place_name": "Norwalk"}, {"median_salary": "$238,286", "place_name": "Oakland"}, {"median_salary": "$223,339", "place_name": "Oceanside"}, {"median_salary": "$221,450", "place_name": "Ontario"}, {"median_salary": "$232,114", "place_name": "Orange"}, {"median_salary": "$222,310", "place_name": "Oxnard"}, {"median_salary": "$230,161", "place_name": "Palmdale"}, {"median_salary": "$230,161", "place_name": "Pasadena"}, {"median_salary": "$234,066", "place_name": "Petaluma"}, {"median_salary": "$232,114", "place_name": "Pomona"}, {"median_salary": "$221,450", "place_name": "Rancho Cucamonga"}, {"median_salary": "$221,450", "place_name": "Rialto"}, {"median_salary": "$256,339", "place_name": "Richmond"}, {"median_salary": "$221,450", "place_name": "Riverside"}, {"median_salary": "$228,020", "place_name": "Roseville"}, {"median_salary": "$228,020", "place_name": "Sacramento"}, {"median_salary": "$232,702", "place_name": "Salinas"}, {"median_salary": "$221,450", "place_name": "San Bernardino"}, {"median_salary": "$223,339", "place_name": "San Diego"}, {"median_salary": "$256,339", "place_name": "San Francisco"}, {"median_salary": "$247,774", "place_name": "San Jose"}, {"median_salary": "$232,114", "place_name": "Santa Ana"}, {"median_salary": "$222,142", "place_name": "Santa Barbara"}, {"median_salary": "$247,774", "place_name": "Santa Clara"}, {"median_salary": "$230,161", "place_name": "Santa Clarita"}, {"median_salary": "$242,043", "place_name": "Santa Cruz"}, {"median_salary": "$213,535", "place_name": "Santa Maria"}, {"median_salary": "$232,911", "place_name": "Santa Rosa"}, {"median_salary": "$222,310", "place_name": "Simi Valley"}, {"median_salary": "$227,789", "place_name": "Stockton"}, {"median_salary": "$247,774", "place_name": "Sunnyvale"}, {"median_salary": "$221,450", "place_name": "Temecula"}, {"median_salary": "$222,310", "place_name": "Thousand Oaks"}, {"median_salary": "$232,114", "place_name": "Torrance"}, {"median_salary": "$234,066", "place_name": "Vallejo"}, {"median_salary": "$222,310", "place_name": "Ventura"}, {"median_salary": "$221,450", "place_name": "Victorville"}, {"median_salary": "$213,976", "place_name": "Visalia"}, {"median_salary": "$230,161", "place_name": "West Covina"}]}, {"state": "Connecticut", "state_towns": [{"median_salary": "$232,974", "place_name": "Bridgeport"}, {"median_salary": "$219,770", "place_name": "Bristol"}, {"median_salary": "$232,974", "place_name": "Danbury"}, {"median_salary": "$219,770", "place_name": "East Hartford"}, {"median_salary": "$232,974", "place_name": "Fairfield"}, {"median_salary": "$234,822", "place_name": "Greenwich"}, {"median_salary": "$232,974", "place_name": "Hamden"}, {"median_salary": "$219,770", "place_name": "Hartford"}, {"median_salary": "$219,770", "place_name": "Manchester"}, {"median_salary": "$219,770", "place_name": "Meriden"}, {"median_salary": "$232,974", "place_name": "Milford"}, {"median_salary": "$219,770", "place_name": "New Britain"}, {"median_salary": "$232,974", "place_name": "New Haven"}, {"median_salary": "$225,039", "place_name": "New London"}, {"median_salary": "$234,822", "place_name": "Norwalk"}, {"median_salary": "$225,039", "place_name": "Norwich"}, {"median_salary": "$234,822", "place_name": "Stamford"}, {"median_salary": "$232,974", "place_name": "Stratford"}, {"median_salary": "$219,770", "place_name": "Waterbury"}, {"median_salary": "$219,770", "place_name": "West Hartford"}, {"median_salary": "$232,974", "place_name": "West Haven"}]}, {"state": "Delaware", "state_towns": [{"median_salary": "$227,621", "place_name": "Bear"}, {"median_salary": "$227,621", "place_name": "Delaware City"}, {"median_salary": "$227,621", "place_name": "Dover"}, {"median_salary": "$227,621", "place_name": "Harrington"}, {"median_salary": "$225,963", "place_name": "Lewes"}, {"median_salary": "$227,621", "place_name": "Middletown"}, {"median_salary": "$227,621", "place_name": "Milford"}, {"median_salary": "$227,621", "place_name": "New Castle"}, {"median_salary": "$227,621", "place_name": "Newark"}, {"median_salary": "$225,963", "place_name": "Rehoboth Beach"}, {"median_salary": "$227,621", "place_name": "Seaford"}, {"median_salary": "$227,621", "place_name": "Wilmington"}]}, {"state": "Hawaii", "state_towns": [{"median_salary": "$227,873", "place_name": "Ewa Beach"}, {"median_salary": "$227,873", "place_name": "Hilo"}, {"median_salary": "$227,873", "place_name": "Honolulu"}, {"median_salary": "$227,873", "place_name": "Kahului"}, {"median_salary": "$227,873", "place_name": "Kaneohe"}, {"median_salary": "$227,873", "place_name": "Pearl City"}, {"median_salary": "$227,873", "place_name": "Waipahu"}]}, {"state": "Maryland", "state_towns": [{"median_salary": "$215,635", "place_name": "Baltimore"}, {"median_salary": "$231,757", "place_name": "Bethesda"}, {"median_salary": "$231,757", "place_name": "Bowie"}, {"median_salary": "$215,635", "place_name": "Columbia"}, {"median_salary": "$215,635", "place_name": "Dundalk"}, {"median_salary": "$215,635", "place_name": "Ellicott City"}, {"median_salary": "$231,757", "place_name": "Frederick"}, {"median_salary": "$231,757", "place_name": "Gaithersburg"}, {"median_salary": "$231,757", "place_name": "Germantown"}, {"median_salary": "$215,635", "place_name": "Glen Burnie"}, {"median_salary": "$231,757", "place_name": "Potomac"}, {"median_salary": "$231,757", "place_name": "Rockville"}, {"median_salary": "$231,757", "place_name": "Silver Spring"}, {"median_salary": "$215,635", "place_name": "Towson"}, {"median_salary": "$231,757", "place_name": "Waldorf"}]}, {"state": "Massachusetts", "state_towns": [{"median_salary": "$226,719", "place_name": "Arlington"}, {"median_salary": "$220,505", "place_name": "Attleboro"}, {"median_salary": "$222,121", "place_name": "Barnstable"}, {"median_salary": "$226,719", "place_name": "Boston"}, {"median_salary": "$226,719", "place_name": "Brockton"}, {"median_salary": "$226,719", "place_name": "Brookline"}, {"median_salary": "$226,719", "place_name": "Cambridge"}, {"median_salary": "$225,501", "place_name": "Chicopee"}, {"median_salary": "$222,121", "place_name": "Fall River"}, {"median_salary": "$221,450", "place_name": "Fitchburg"}, {"median_salary": "$226,719", "place_name": "Framingham"}, {"median_salary": "$221,680", "place_name": "Haverhill"}, {"median_salary": "$225,501", "place_name": "Holyoke"}, {"median_salary": "$222,121", "place_name": "Hyannis"}, {"median_salary": "$221,680", "place_name": "Lawrence"}, {"median_salary": "$221,450", "place_name": "Leominster"}, {"median_salary": "$226,719", "place_name": "Lowell"}, {"median_salary": "$226,719", "place_name": "Lynn"}, {"median_salary": "$226,719", "place_name": "Malden"}, {"median_salary": "$226,719", "place_name": "Medford"}, {"median_salary": "$221,680", "place_name": "Methuen"}, {"median_salary": "$222,121", "place_name": "New Bedford"}, {"median_salary": "$226,719", "place_name": "Newton"}, {"median_salary": "$226,719", "place_name": "Peabody"}, {"median_salary": "$215,635", "place_name": "Pittsfield"}, {"median_salary": "$226,719", "place_name": "Plymouth"}, {"median_salary": "$226,719", "place_name": "Quincy"}, {"median_salary": "$226,719", "place_name": "Revere"}, {"median_salary": "$226,719", "place_name": "Salem"}, {"median_salary": "$226,719", "place_name": "Somerville"}, {"median_salary": "$225,501", "place_name": "Springfield"}, {"median_salary": "$226,719", "place_name": "Taunton"}, {"median_salary": "$226,719", "place_name": "Waltham"}, {"median_salary": "$225,501", "place_name": "Westfield"}, {"median_salary": "$226,719", "place_name": "Weymouth"}, {"median_salary": "$221,450", "place_name": "Worcester"}]}, {"state": "New Hampshire", "state_towns": [{"median_salary": "$221,680", "place_name": "Bedford"}, {"median_salary": "$221,680", "place_name": "Concord"}, {"median_salary": "$221,680", "place_name": "Derry"}, {"median_salary": "$214,543", "place_name": "Dover"}, {"median_salary": "$221,680", "place_name": "Keene"}, {"median_salary": "$221,680", "place_name": "Manchester"}, {"median_salary": "$221,680", "place_name": "Merrimack"}, {"median_salary": "$221,680", "place_name": "Nashua"}, {"median_salary": "$214,543", "place_name": "Portsmouth"}, {"median_salary": "$214,543", "place_name": "Rochester"}, {"median_salary": "$221,680", "place_name": "Salem"}]}, {"state": "New Jersey", "state_towns": [{"median_salary": "$225,963", "place_name": "Atlantic City"}, {"median_salary": "$247,522", "place_name": "Bayonne"}, {"median_salary": "$240,217", "place_name": "Bergenfield"}, {"median_salary": "$240,217", "place_name": "Bloomfield"}, {"median_salary": "$220,988", "place_name": "Camden"}, {"median_salary": "$240,217", "place_name": "Clifton"}, {"median_salary": "$247,522", "place_name": "East Brunswick"}, {"median_salary": "$247,522", "place_name": "East Orange"}, {"median_salary": "$247,522", "place_name": "Edison"}, {"median_salary": "$247,522", "place_name": "Elizabeth"}, {"median_salary": "$240,217", "place_name": "Hackensack"}, {"median_salary": "$247,522", "place_name": "Hoboken"}, {"median_salary": "$247,522", "place_name": "Irvington"}, {"median_salary": "$247,522", "place_name": "Jersey City"}, {"median_salary": "$247,522", "place_name": "Lakewood"}, {"median_salary": "$247,522", "place_name": "Middlesex"}, {"median_salary": "$247,522", "place_name": "New Brunswick"}, {"median_salary": "$247,522", "place_name": "Newark"}, {"median_salary": "$240,217", "place_name": "Paramus"}, {"median_salary": "$240,217", "place_name": "Passaic"}, {"median_salary": "$240,217", "place_name": "Paterson"}, {"median_salary": "$247,522", "place_name": "Perth Amboy"}, {"median_salary": "$247,522", "place_name": "Plainfield"}, {"median_salary": "$247,522", "place_name": "Sayreville"}, {"median_salary": "$247,522", "place_name": "Somerset"}, {"median_salary": "$225,963", "place_name": "Toms River"}, {"median_salary": "$247,522", "place_name": "Trenton"}, {"median_salary": "$247,522", "place_name": "Union"}, {"median_salary": "$247,522", "place_name": "Union City"}, {"median_salary": "$230,602", "place_name": "Vineland"}, {"median_salary": "$240,217", "place_name": "Wayne"}, {"median_salary": "$247,522", "place_name": "West New York"}, {"median_salary": "$247,522", "place_name": "West Orange"}]}, {"state": "Rhode Island", "state_towns": [{"median_salary": "$220,505", "place_name": "Coventry"}, {"median_salary": "$220,505", "place_name": "Cranston"}, {"median_salary": "$220,505", "place_name": "Cumberland"}, {"median_salary": "$220,505", "place_name": "Narragansett"}, {"median_salary": "$220,505", "place_name": "Newport"}, {"median_salary": "$220,505", "place_name": "Pawtucket"}, {"median_salary": "$220,505", "place_name": "Providence"}, {"median_salary": "$220,505", "place_name": "Warwick"}, {"median_salary": "$220,505", "place_name": "Woonsocket"}]}]