[{"state": "Alaska", "state_towns": [{"median_salary": "$237,005", "place_name": "Anchorage"}, {"median_salary": "$235,116", "place_name": "Fairbanks"}, {"median_salary": "$237,425", "place_name": "Juneau"}, {"median_salary": "$237,005", "place_name": "Palmer"}, {"median_salary": "$237,425", "place_name": "Sitka"}, {"median_salary": "$237,005", "place_name": "Wasilla"}]}, {"state": "California", "state_towns": [{"median_salary": "$232,114", "place_name": "Anaheim"}, {"median_salary": "$234,066", "place_name": "Antioch"}, {"median_salary": "$221,450", "place_name": "Apple Valley"}, {"median_salary": "$216,138", "place_name": "Bakersfield"}, {"median_salary": "$238,286", "place_name": "Berkeley"}, {"median_salary": "$230,161", "place_name": "Burbank"}, {"median_salary": "$223,339", "place_name": "Carlsbad"}, {"median_salary": "$232,114", "place_name": "Carson"}, {"median_salary": "$215,929", "place_name": "Chico"}, {"median_salary": "$223,339", "place_name": "Chula Vista"}, {"median_salary": "$221,450", "place_name": "Coachella"}, {"median_salary": "$238,286", "place_name": "Concord"}, {"median_salary": "$221,450", "place_name": "Corona"}, {"median_salary": "$232,114", "place_name": "Costa Mesa"}, {"median_salary": "$256,339", "place_name": "Daly City"}, {"median_salary": "$232,114", "place_name": "Downey"}, {"median_salary": "$223,339", "place_name": "El Cajon"}, {"median_salary": "$230,161", "place_name": "El Monte"}, {"median_salary": "$228,020", "place_name": "Elk Grove"}, {"median_salary": "$223,339", "place_name": "Escondido"}, {"median_salary": "$234,066", "place_name": "Fairfield"}, {"median_salary": "$221,450", "place_name": "Fontana"}, {"median_salary": "$247,774", "place_name": "Fremont"}, {"median_salary": "$213,976", "place_name": "Fresno"}, {"median_salary": "$232,114", "place_name": "Fullerton"}, {"median_salary": "$232,114", "place_name": "Garden Grove"}, {"median_salary": "$230,161", "place_name": "Glendale"}, {"median_salary": "$238,286", "place_name": "Hayward"}, {"median_salary": "$232,114", "place_name": "Huntington Beach"}, {"median_salary": "$230,161", "place_name": "Inglewood"}, {"median_salary": "$232,114", "place_name": "Irvine"}, {"median_salary": "$230,161", "place_name": "Lancaster"}, {"median_salary": "$213,808", "place_name": "Lompoc"}, {"median_salary": "$232,114", "place_name": "Long Beach"}, {"median_salary": "$230,161", "place_name": "Los Angeles"}, {"median_salary": "$222,877", "place_name": "Modesto"}, {"median_salary": "$232,702", "place_name": "Monterey"}, {"median_salary": "$221,450", "place_name": "Moreno Valley"}, {"median_salary": "$221,450", "place_name": "Murrieta"}, {"median_salary": "$230,161", "place_name": "Newhall"}, {"median_salary": "$232,114", "place_name": "Norwalk"}, {"median_salary": "$238,286", "place_name": "Oakland"}, {"median_salary": "$223,339", "place_name": "Oceanside"}, {"median_salary": "$221,450", "place_name": "Ontario"}, {"median_salary": "$232,114", "place_name": "Orange"}, {"median_salary": "$222,310", "place_name": "Oxnard"}, {"median_salary": "$230,161", "place_name": "Palmdale"}, {"median_salary": "$230,161", "place_name": "Pasadena"}, {"median_salary": "$234,066", "place_name": "Petaluma"}, {"median_salary": "$232,114", "place_name": "Pomona"}, {"median_salary": "$221,450", "place_name": "Rancho Cucamonga"}, {"median_salary": "$221,450", "place_name": "Rialto"}, {"median_salary": "$256,339", "place_name": "Richmond"}, {"median_salary": "$221,450", "place_name": "Riverside"}, {"median_salary": "$228,020", "place_name": "Roseville"}, {"median_salary": "$228,020", "place_name": "Sacramento"}, {"median_salary": "$232,702", "place_name": "Salinas"}, {"median_salary": "$221,450", "place_name": "San Bernardino"}, {"median_salary": "$223,339", "place_name": "San Diego"}, {"median_salary": "$256,339", "place_name": "San Francisco"}, {"median_salary": "$247,774", "place_name": "San Jose"}, {"median_salary": "$232,114", "place_name": "Santa Ana"}, {"median_salary": "$222,142", "place_name": "Santa Barbara"}, {"median_salary": "$247,774", "place_name": "Santa Clara"}, {"median_salary": "$230,161", "place_name": "Santa Clarita"}, {"median_salary": "$242,043", "place_name": "Santa Cruz"}, {"median_salary": "$213,535", "place_name": "Santa Maria"}, {"median_salary": "$232,911", "place_name": "Santa Rosa"}, {"median_salary": "$222,310", "place_name": "Simi Valley"}, {"median_salary": "$227,789", "place_name": "Stockton"}, {"median_salary": "$247,774", "place_name": "Sunnyvale"}, {"median_salary": "$221,450", "place_name": "Temecula"}, {"median_salary": "$222,310", "place_name": "Thousand Oaks"}, {"median_salary": "$232,114", "place_name": "Torrance"}, {"median_salary": "$234,066", "place_name": "Vallejo"}, {"median_salary": "$222,310", "place_name": "Ventura"}, {"median_salary": "$221,450", "place_name": "Victorville"}, {"median_salary": "$213,976", "place_name": "Visalia"}, {"median_salary": "$230,161", "place_name": "West Covina"}]}, {"state": "Connecticut", "state_towns": [{"median_salary": "$232,974", "place_name": "Bridgeport"}, {"median_salary": "$219,770", "place_name": "Bristol"}, {"median_salary": "$232,974", "place_name": "Danbury"}, {"median_salary": "$219,770", "place_name": "East Hartford"}, {"median_salary": "$232,974", "place_name": "Fairfield"}, {"median_salary": "$234,822", "place_name": "Greenwich"}, {"median_salary": "$232,974", "place_name": "Hamden"}, {"median_salary": "$219,770", "place_name": "Hartford"}, {"median_salary": "$219,770", "place_name": "Manchester"}, {"median_salary": "$219,770", "place_name": "Meriden"}, {"median_salary": "$232,974", "place_name": "Milford"}, {"median_salary": "$219,770", "place_name": "New Britain"}, {"median_salary": "$232,974", "place_name": "New Haven"}, {"median_salary": "$225,039", "place_name": "New London"}, {"median_salary": "$234,822", "place_name": "Norwalk"}, {"median_salary": "$225,039", "place_name": "Norwich"}, {"median_salary": "$234,822", "place_name": "Stamford"}, {"median_salary": "$232,974", "place_name": "Stratford"}, {"median_salary": "$219,770", "place_name": "Waterbury"}, {"median_salary": "$219,770", "place_name": "West Hartford"}, {"median_salary": "$232,974", "place_name": "West Haven"}]}, {"state": "Delaware", "state_towns": [{"median_salary": "$227,621", "place_name": "Bear"}, {"median_salary": "$227,621", "place_name": "Delaware City"}, {"median_salary": "$227,621", "place_name": "Dover"}, {"median_salary": "$227,621", "place_name": "Harrington"}, {"median_salary": "$225,963", "place_name": "Lewes"}, {"median_salary": "$227,621", "place_name": "Middletown"}, {"median_salary": "$227,621", "place_name": "Milford"}, {"median_salary": "$227,621", "place_name": "New Castle"}, {"median_salary": "$227,621", "place_name": "Newark"}, {"median_salary": "$225,963", "place_name": "Rehoboth Beach"}, {"median_salary": "$227,621", "place_name": "Seaford"}, {"median_salary": "$227,621", "place_name": "Wilmington"}]}, {"state": "Hawaii", "state_towns": [{"median_salary": "$227,873", "place_name": "Ewa Beach"}, {"median_salary": "$227,873", "place_name": "Hilo"}, {"median_salary": "$227,873", "place_name": "Honolulu"}, {"median_salary": "$227,873", "place_name": "Kahului"}, {"median_salary": "$227,873", "place_name": "Kaneohe"}, {"median_salary": "$227,873", "place_name": "Pearl City"}, {"median_salary": "$227,873", "place_name": "Waipahu"}]}, {"state": "Maryland", "state_towns": [{"median_salary": "$215,635", "place_name": "Baltimore"}, {"median_salary": "$231,757", "place_name": "Bethesda"}, {"median_salary": "$231,757", "place_name": "Bowie"}, {"median_salary": "$215,635", "place_name": "Columbia"}, {"median_salary": "$215,635", "place_name": "Dundalk"}, {"median_salary": "$215,635", "place_name": "Ellicott City"}, {"median_salary": "$231,757", "place_name": "Frederick"}, {"median_salary": "$231,757", "place_name": "Gaithersburg"}, {"median_salary": "$231,757", "place_name": "Germantown"}, {"median_salary": "$215,635", "place_name": "Glen Burnie"}, {"median_salary": "$231,757", "place_name": "Potomac"}, {"median_salary": "$231,757", "place_name": "Rockville"}, {"median_salary": "$231,757", "place_name": "Silver Spring"}, {"median_salary": "$215,635", "place_name": "Towson"}, {"median_salary": "$231,757", "place_name": "Waldorf"}]}, {"state": "Massachusetts", "state_towns": [{"median_salary": "$226,719", "place_name": "Arlington"}, {"median_salary": "$220,505", "place_name": "Attleboro"}, {"median_salary": "$222,121", "place_name": "Barnstable"}, {"median_salary": "$226,719", "place_name": "Boston"}, {"median_salary": "$226,719", "place_name": "Brockton"}, {"median_salary": "$226,719", "place_name": "Brookline"}, {"median_salary": "$226,719", "place_name": "Cambridge"}, {"median_salary": "$225,501", "place_name": "Chicopee"}, {"median_salary": "$222,121", "place_name": "Fall River"}, {"median_salary": "$221,450", "place_name": "Fitchburg"}, {"median_salary": "$226,719", "place_name": "Framingham"}, {"median_salary": "$221,680", "place_name": "Haverhill"}, {"median_salary": "$225,501", "place_name": "Holyoke"}, {"median_salary": "$222,121", "place_name": "Hyannis"}, {"median_salary": "$221,680", "place_name": "Lawrence"}, {"median_salary": "$221,450", "place_name": "Leominster"}, {"median_salary": "$226,719", "place_name": "Lowell"}, {"median_salary": "$226,719", "place_name": "Lynn"}, {"median_salary": "$226,719", "place_name": "Malden"}, {"median_salary": "$226,719", "place_name": "Medford"}, {"median_salary": "$221,680", "place_name": "Methuen"}, {"median_salary": "$222,121", "place_name": "New Bedford"}, {"median_salary": "$226,719", "place_name": "Newton"}, {"median_salary": "$226,719", "place_name": "Peabody"}, {"median_salary": "$215,635", "place_name": "Pittsfield"}, {"median_salary": "$226,719", "place_name": "Plymouth"}, {"median_salary": "$226,719", "place_name": "Quincy"}, {"median_salary": "$226,719", "place_name": "Revere"}, {"median_salary": "$226,719", "place_name": "Salem"}, {"median_salary": "$226,719", "place_name": "Somerville"}, {"median_salary": "$225,501", "place_name": "Springfield"}, {"median_salary": "$226,719", "place_name": "Taunton"}, {"median_salary": "$226,719", "place_name": "Waltham"}, {"median_salary": "$225,501", "place_name": "Westfield"}, {"median_salary": "$226,719", "place_name": "Weymouth"}, {"median_salary": "$221,450", "place_name": "Worcester"}]}, {"state": "New Hampshire", "state_towns": [{"median_salary": "$221,680", "place_name": "Bedford"}, {"median_salary": "$221,680", "place_name": "Concord"}, {"median_salary": "$221,680", "place_name": "Derry"}, {"median_salary": "$214,543", "place_name": "Dover"}, {"median_salary": "$221,680", "place_name": "Keene"}, {"median_salary": "$221,680", "place_name": "Manchester"}, {"median_salary": "$221,680", "place_name": "Merrimack"}, {"median_salary": "$221,680", "place_name": "Nashua"}, {"median_salary": "$214,543", "place_name": "Portsmouth"}, {"median_salary": "$214,543", "place_name": "Rochester"}, {"median_salary": "$221,680", "place_name": "Salem"}]}, {"state": "New Jersey", "state_towns": [{"median_salary": "$225,963", "place_name": "Atlantic City"}, {"median_salary": "$247,522", "place_name": "Bayonne"}, {"median_salary": "$240,217", "place_name": "Bergenfield"}, {"median_salary": "$240,217", "place_name": "Bloomfield"}, {"median_salary": "$220,988", "place_name": "Camden"}, {"median_salary": "$240,217", "place_name": "Clifton"}, {"median_salary": "$247,522", "place_name": "East Brunswick"}, {"median_salary": "$247,522", "place_name": "East Orange"}, {"median_salary": "$247,522", "place_name": "Edison"}, {"median_salary": "$247,522", "place_name": "Elizabeth"}, {"median_salary": "$240,217", "place_name": "Hackensack"}, {"median_salary": "$247,522", "place_name": "Hoboken"}, {"median_salary": "$247,522", "place_name": "Irvington"}, {"median_salary": "$247,522", "place_name": "Jersey City"}, {"median_salary": "$247,522", "place_name": "Lakewood"}, {"median_salary": "$247,522", "place_name": "Middlesex"}, {"median_salary": "$247,522", "place_name": "New Brunswick"}, {"median_salary": "$247,522", "place_name": "Newark"}, {"median_salary": "$240,217", "place_name": "Paramus"}, {"median_salary": "$240,217", "place_name": "Passaic"}, {"median_salary": "$240,217", "place_name": "Paterson"}, {"median_salary": "$247,522", "place_name": "Perth Amboy"}, {"median_salary": "$247,522", "place_name": "Plainfield"}, {"median_salary": "$247,522", "place_name": "Sayreville"}, {"median_salary": "$247,522", "place_name": "Somerset"}, {"median_salary": "$225,963", "place_name": "Toms River"}, {"median_salary": "$247,522", "place_name": "Trenton"}, {"median_salary": "$247,522", "place_name": "Union"}, {"median_salary": "$247,522", "place_name": "Union City"}, {"median_salary": "$230,602", "place_name": "Vineland"}, {"median_salary": "$240,217", "place_name": "Wayne"}, {"median_salary": "$247,522", "place_name": "West New York"}, {"median_salary": "$247,522", "place_name": "West Orange"}]}, {"state": "Rhode Island", "state_towns": [{"median_salary": "$220,505", "place_name": "Coventry"}, {"median_salary": "$220,505", "place_name": "Cranston"}, {"median_salary": "$220,505", "place_name": "Cumberland"}, {"median_salary": "$220,505", "place_name": "Narragansett"}, {"median_salary": "$220,505", "place_name": "Newport"}, {"median_salary": "$220,505", "place_name": "Pawtucket"}, {"median_salary": "$220,505", "place_name": "Providence"}, {"median_salary": "$220,505", "place_name": "Warwick"}, {"median_salary": "$220,505", "place_name": "Woonsocket"}]}]